{
"type": "FeatureCollection",
"name": "cuenca_quiscab",
"crs": { "type": "name", "properties": { "name": "urn:ogc:def:crs:OGC:1.3:CRS84" } },
"features": [
{ "type": "Feature", "properties": { "gid": 0 }, "geometry": { "type": "MultiPolygon", "coordinates": [ [ [ [ -91.181250000333335, 14.743750000333334 ], [ -91.183750000333333, 14.747083333666668 ], [ -91.194583333666671, 14.750416667 ], [ -91.197083333666669, 14.752916667 ], [ -91.197083333666669, 14.755416667 ], [ -91.198750000333334, 14.755416667 ], [ -91.202083333666664, 14.759583333666667 ], [ -91.210416667, 14.757916667 ], [ -91.214583333666667, 14.760416666666689 ], [ -91.217916666666696, 14.760416666666689 ], [ -91.222083333333359, 14.757916666666688 ], [ -91.225416666666689, 14.759583333333357 ], [ -91.227083333333354, 14.757083333333355 ], [ -91.23125, 14.75875 ], [ -91.23208333333335, 14.75625 ], [ -91.23125, 14.754583333333354 ], [ -91.232916666666682, 14.752083333333356 ], [ -91.237083333333359, 14.752916666666689 ], [ -91.23875, 14.75541666666669 ], [ -91.247916666666697, 14.75625 ], [ -91.249583333333362, 14.757916666666688 ], [ -91.257083333333355, 14.757083333333355 ], [ -91.257916666666688, 14.75875 ], [ -91.265416666666681, 14.75625 ], [ -91.267916666666693, 14.75625 ], [ -91.26875, 14.757916666666688 ], [ -91.277083333333366, 14.75875 ], [ -91.279583333333363, 14.757916666666688 ], [ -91.28125, 14.75541666666669 ], [ -91.284583333333359, 14.75625 ], [ -91.287916666666689, 14.752083333333356 ], [ -91.29125, 14.754583333333354 ], [ -91.29125, 14.760416666666689 ], [ -91.292916666666684, 14.762083333333354 ], [ -91.292916666666684, 14.765416666666688 ], [ -91.290416666666687, 14.767916666666689 ], [ -91.29125, 14.774583333333354 ], [ -91.289583333333354, 14.77541666666669 ], [ -91.28875, 14.77875 ], [ -91.29125, 14.780416666666689 ], [ -91.292083333333352, 14.784583333333355 ], [ -91.289583333333354, 14.787916666666689 ], [ -91.290416666666687, 14.79041666666669 ], [ -91.29375, 14.792083333333355 ], [ -91.29375, 14.794583333333357 ], [ -91.295416666666682, 14.79625 ], [ -91.295416666666682, 14.805416666666687 ], [ -91.297083333333347, 14.807083333333356 ], [ -91.297083333333347, 14.812083333333355 ], [ -91.292083333333352, 14.81791666666669 ], [ -91.29125, 14.82875 ], [ -91.289583333333354, 14.829583333333357 ], [ -91.287916666666689, 14.83791666666669 ], [ -91.285416666666691, 14.83875 ], [ -91.28375, 14.84625 ], [ -91.28125, 14.84875 ], [ -91.27125, 14.847083333333355 ], [ -91.270416666666691, 14.849583333333356 ], [ -91.26875, 14.850416666666689 ], [ -91.26875, 14.85291666666669 ], [ -91.265416666666681, 14.852083333333354 ], [ -91.265416666666681, 14.857916666666689 ], [ -91.257083333333355, 14.864583333333357 ], [ -91.257083333333355, 14.867916666666687 ], [ -91.25875, 14.869583333333356 ], [ -91.257083333333355, 14.870416666666689 ], [ -91.257916666666688, 14.874583333333355 ], [ -91.25625, 14.877083333333356 ], [ -91.25541666666669, 14.884583333333357 ], [ -91.25875, 14.887916666666687 ], [ -91.252916666666692, 14.88875 ], [ -91.25125, 14.887083333333354 ], [ -91.247916666666697, 14.887083333333354 ], [ -91.245416666666699, 14.88375 ], [ -91.244583333333367, 14.884583333333357 ], [ -91.24041666666669, 14.88375 ], [ -91.237916666666692, 14.88041666666669 ], [ -91.23125, 14.88125 ], [ -91.22875, 14.88041666666669 ], [ -91.227916666666687, 14.864583333333357 ], [ -91.23125, 14.860416666666687 ], [ -91.222916666666691, 14.859583333333354 ], [ -91.222083333333359, 14.857916666666689 ], [ -91.217916666666696, 14.857916666666689 ], [ -91.217083333333363, 14.85625 ], [ -91.214583333333366, 14.857083333333357 ], [ -91.210416666666688, 14.85291666666669 ], [ -91.20375, 14.85375 ], [ -91.202916666666681, 14.852083333333354 ], [ -91.199583333333351, 14.85125 ], [ -91.197083333333353, 14.84875 ], [ -91.190416666666692, 14.849583333333356 ], [ -91.18375, 14.85625 ], [ -91.18125, 14.855416666666688 ], [ -91.174583333333359, 14.857916666666689 ], [ -91.170416666666682, 14.857083333333357 ], [ -91.160416666666691, 14.857916666666689 ], [ -91.15875, 14.85625 ], [ -91.152083333333366, 14.857916666666689 ], [ -91.147083333333356, 14.85291666666669 ], [ -91.145416666666691, 14.85291666666669 ], [ -91.145416666666691, 14.850416666666689 ], [ -91.14875, 14.844583333333354 ], [ -91.152083333333366, 14.84375 ], [ -91.15375, 14.84125 ], [ -91.15625, 14.84125 ], [ -91.157916666666694, 14.837083333333354 ], [ -91.16375, 14.839583333333355 ], [ -91.16625, 14.83875 ], [ -91.16958333333335, 14.834583333333356 ], [ -91.17125, 14.834583333333356 ], [ -91.172083333333347, 14.832083333333355 ], [ -91.174583333333359, 14.830416666666689 ], [ -91.175416666666692, 14.82375 ], [ -91.177083333333357, 14.822916666666689 ], [ -91.172083333333347, 14.820416666666688 ], [ -91.17291666666668, 14.81875 ], [ -91.172083333333347, 14.815416666666689 ], [ -91.175416666666692, 14.81375 ], [ -91.175416667, 14.811250000333334 ], [ -91.17125000033333, 14.810416667 ], [ -91.169583333666665, 14.808750000333333 ], [ -91.169583333666665, 14.805416667 ], [ -91.167083333666667, 14.802083333666667 ], [ -91.168750000333333, 14.802083333666667 ], [ -91.167916667, 14.793750000333334 ], [ -91.170416667, 14.792916667 ], [ -91.172916667, 14.782916667 ], [ -91.175416667, 14.782083333666668 ], [ -91.174583333666661, 14.778750000333334 ], [ -91.17625000033334, 14.777916667 ], [ -91.175416667, 14.776250000333334 ], [ -91.177083333666673, 14.775416667 ], [ -91.177083333666673, 14.770416667 ], [ -91.175416667, 14.770416667 ], [ -91.174583333666661, 14.764583333666668 ], [ -91.172083333666663, 14.762083333666666 ], [ -91.173750000333328, 14.759583333666667 ], [ -91.172083333666663, 14.758750000333334 ], [ -91.170416667, 14.752083333666667 ], [ -91.172916667, 14.750416667 ], [ -91.173750000333328, 14.746250000333333 ], [ -91.178750000333338, 14.742083333666667 ], [ -91.178750000333338, 14.740416667 ], [ -91.181250000333335, 14.743750000333334 ] ] ] ] } }
]
}
